OBJECT_NAME,OBJECT_ID,EPOCH,MEAN_MOTION,ECCENTRICITY,INCLINATION,RA_OF_ASC_NODE,ARG_OF_PERICENTER,MEAN_ANOMALY,EPHEMERIS_TYPE,CLASSIFICATION_TYPE,NORAD_CAT_ID,ELEMENT_SET_NO,REV_AT_EPOCH,BSTAR,MEAN_MOTION_DOT,MEAN_MOTION_DDOT
OCEANSAT-2,2009-051A,2026-07-08T05:11:40.427232,13.99657353,.001687,98.2318,173.9686,173.7586,186.3794,0,U,35931,999,88227,-.9772E-4,-.181E-5,0
WORLDVIEW-2 (WV-2),2009-055A,2026-07-08T04:17:23.733888,14.37905628,.0004996,98.4758,262.3422,147.1597,212.9901,0,U,35946,999,87866,.33383E-4,.57E-6,0
SMOS,2009-059A,2026-07-07T23:14:53.244384,14.39732970,.0001128,98.4429,15.9992,95.3490,264.7827,0,U,36036,999,87644,.68886E-4,.172E-5,0
YAOGAN-7,2009-069A,2026-07-07T03:03:51.409440,14.78030223,.00240564,98.0047,73.8694,338.2842,21.7346,0,U,36110,999,89257,.61972214E-4,.396E-5,0
TANDEM-X,2010-030A,2026-07-07T11:29:58.986816,15.19154052,.0001887,97.4457,195.8973,94.3019,265.8431,0,U,36605,999,88972,.21566E-4,.386E-5,0
CARTOSAT-2B,2010-035A,2026-07-08T04:22:24.234816,14.78613485,.0012417,97.9939,239.5970,119.5378,240.7072,0,U,36795,999,86295,.11812E-3,.813E-5,0
YAOGAN-10,2010-038A,2026-07-08T05:38:53.155680,14.85415966,.0001674,97.8972,212.4717,85.5872,342.6101,0,U,36834,999,86033,.18986E-3,.1582E-4,0
COSMO-SKYMED 4,2010-060A,2026-07-08T04:04:01.406208,14.82161448,.0001484,97.8898,12.4653,85.7189,274.4194,0,U,37216,999,84767,-.29413E-4,-.286E-5,0
RESOURCESAT-2,2011-015A,2026-07-08T03:12:12.765312,14.21604897,.0011171,98.7634,256.4296,191.1706,168.9224,0,U,37387,999,78915,.33947E-4,.3E-6,0
HAIYANG-2A,2011-043A,2026-07-08T05:27:55.009728,13.73674830,.0003865,99.3403,191.4270,49.4243,310.7241,0,U,37781,999,74954,.72751E-5,-.37E-6,0
RASAT,2011-044D,2026-07-08T04:09:32.035680,14.68188320,.00217,98.0574,280.2505,123.7569,323.2672,0,U,37791,999,79626,.722E-4,.368E-5,0
SRMSAT,2011-058D,2026-07-07T12:20:05.633376,14.11579854,.00118785,19.9725,296.4406,67.5382,21.1361,0,U,37841,999,76069,.53719828E-4,.364E-5,0
PLEIADES 1A,2011-076F,2026-07-08T04:34:54.235200,14.58544043,.0001736,98.1965,264.0112,83.1574,1.6052,0,U,38012,999,77505,.93594E-5,-.2E-7,0
ZIYUAN 1-02C (ZY 1-02C),2011-079A,2026-07-08T05:32:04.976160,14.38232119,.0005271,98.4058,256.0990,239.2425,211.7221,0,U,38038,999,76223,.8926E-4,.228E-5,0
ARIRANG-3 (KOMPSAT-3),2012-025B,2026-07-08T04:15:46.999584,14.62224810,.0006577,98.1181,146.2766,56.9862,303.1970,0,U,38338,999,75441,.67389E-4,.293E-5,0
EXACTVIEW-1 (ADS-1B),2012-039C,2026-07-07T21:13:12.990432,14.24990725,.0011919,98.9798,306.7440,110.5907,249.6551,0,U,38709,999,72565,.53734E-4,.79E-6,0
SPOT 6,2012-047A,2026-07-08T04:33:45.847008,14.58536455,.0001132,98.2106,256.2526,81.3285,278.8042,0,U,38755,999,73611,.45393E-4,.165E-5,0
PLEIADES 1B,2012-068A,2026-07-08T00:04:08.678208,14.58573574,.0001631,98.1936,263.7678,82.5293,277.6091,0,U,39019,999,72388,.29157E-4,.9E-6,0
GOKTURK 2,2012-073A,2026-07-08T04:05:30.963264,14.75563577,.0000914,97.6817,25.5492,74.4259,285.7052,0,U,39030,999,72760,.43099E-4,.247E-5,0
LANDSAT 8,2013-008A,2026-07-08T04:12:08.258112,14.57108674,.0001346,98.2292,259.0602,94.5142,265.6210,0,U,39084,999,70095,.63651E-4,.241E-5,0
SARAL,2013-009A,2026-07-08T04:47:11.832000,14.32894517,.0001282,98.5554,15.5009,186.2334,173.8835,0,U,39086,999,69861,.37915E-4,.6E-6,0
GAOFEN-1,2013-018A,2026-07-08T04:57:20.954592,14.76512445,.0016468,97.9082,260.8469,193.9271,166.1487,0,U,39150,999,71134,-.88637E-5,-.113E-5,0
VNREDSAT 1,2013-021B,2026-07-08T04:41:52.537344,14.64879813,.000165,97.9066,241.8051,81.9630,278.1760,0,U,39160,999,70336,.82015E-4,.393E-5,0
ARIRANG-5 (KOMPSAT-5),2013-042A,2026-07-08T04:23:02.620608,15.04515761,.000539,97.6221,15.5875,74.5269,285.6552,0,U,39227,999,70701,.76309E-4,.1008E-4,0
SKYSAT-A,2013-066C,2026-07-08T02:09:11.300832,15.13089275,.0019952,97.3803,237.8207,239.3754,120.5510,0,U,39418,999,69164,.11888E-3,.2049E-4,0
DUBAISAT-2,2013-066D,2026-07-08T03:21:44.308224,15.10340468,.0009941,97.4575,178.7381,330.5931,29.4739,0,U,39419,999,68955,.12179E-3,.1936E-4,0
GPM-CORE,2014-009C,2026-07-08T02:52:54.346080,15.44987552,.0011098,64.9704,237.9982,259.7478,100.2411,0,U,39574,999,70104,.83418E-4,.37E-4,0
SENTINEL-1A,2014-016A,2026-07-08T03:28:15.221568,14.59200864,.0001418,98.1785,196.3716,87.3430,272.7932,0,U,39634,999,65307,.38394E-4,.135E-5,0
KAZEOSAT 1,2014-024A,2026-07-08T04:25:06.242592,14.42035313,.0001266,98.3194,261.1087,83.4068,276.7266,0,U,39731,999,64158,-.35267E-5,-.54E-6,0
ALOS-2,2014-029A,2026-07-08T05:46:29.852256,14.79473219,.0001609,97.9222,286.1036,92.8546,267.2850,0,U,39766,999,65469,.18131E-3,.1303E-4,0
KAZEOSAT 2,2014-033A,2026-07-08T04:17:40.032384,14.85496105,.0007017,97.5401,27.6807,247.3705,112.6769,0,U,40010,999,65207,.10269E-3,.836E-5,0
