OCEANSAT-2              
1 35931U 09051A   26189.21644013 -.00000181  00000+0 -97720-4 0  9993
2 35931  98.2318 173.9686 0016870 173.7586 186.3794 13.99657353882279
WORLDVIEW-2 (WV-2)      
1 35946U 09055A   26189.17874692  .00000057  00000+0  33383-4 0  9991
2 35946  98.4758 262.3422 0004996 147.1597 212.9901 14.37905628878667
SMOS                    
1 36036U 09059A   26188.96867181  .00000172  00000+0  68886-4 0  9991
2 36036  98.4429  15.9992 0001128  95.3490 264.7827 14.39732970876443
YAOGAN-7                
1 36110U 09069A   26188.12767835  .00000396  00000+0  61972-4 0  9995
2 36110  98.0047  73.8694 0024056 338.2842  21.7346 14.78030223892579
TANDEM-X                
1 36605U 10030A   26188.47915494  .00000386  00000+0  21566-4 0  9992
2 36605  97.4457 195.8973 0001887  94.3019 265.8431 15.19154052889726
CARTOSAT-2B             
1 36795U 10035A   26189.18222494  .00000813  00000+0  11812-3 0  9994
2 36795  97.9939 239.5970 0012417 119.5378 240.7072 14.78613485862951
YAOGAN-10               
1 36834U 10038A   26189.23533745  .00001582  00000+0  18986-3 0  9994
2 36834  97.8972 212.4717 0001674  85.5872 342.6101 14.85415966860331
COSMO-SKYMED 4          
1 37216U 10060A   26189.16946072 -.00000286  00000+0 -29413-4 0  9997
2 37216  97.8898  12.4653 0001484  85.7189 274.4194 14.82161448847678
RESOURCESAT-2           
1 37387U 11015A   26189.13348108  .00000030  00000+0  33947-4 0  9992
2 37387  98.7634 256.4296 0011171 191.1706 168.9224 14.21604897789151
HAIYANG-2A              
1 37781U 11043A   26189.22772002 -.00000037  00000+0  72751-5 0  9990
2 37781  99.3403 191.4270 0003865  49.4243 310.7241 13.73674830749547
RASAT                   
1 37791U 11044D   26189.17328745  .00000368  00000+0  72200-4 0  9991
2 37791  98.0574 280.2505 0021700 123.7569 323.2672 14.68188320796263
SRMSAT                  
1 37841U 11058D   26188.51395409  .00000364  00000+0  53720-4 0  9992
2 37841  19.9725 296.4406 0011878  67.5382  21.1361 14.11579854760692
PLEIADES 1A             
1 38012U 11076F   26189.19090550 -.00000002  00000+0  93594-5 0  9991
2 38012  98.1965 264.0112 0001736  83.1574   1.6052 14.58544043775051
ZIYUAN 1-02C (ZY 1-02C) 
1 38038U 11079A   26189.23061315  .00000228  00000+0  89260-4 0  9997
2 38038  98.4058 256.0990 0005271 239.2425 211.7221 14.38232119762231
ARIRANG-3 (KOMPSAT-3)   
1 38338U 12025B   26189.17762731  .00000293  00000+0  67389-4 0  9995
2 38338  98.1181 146.2766 0006577  56.9862 303.1970 14.62224810754412
EXACTVIEW-1 (ADS-1B)    
1 38709U 12039C   26188.88417813  .00000079  00000+0  53734-4 0  9998
2 38709  98.9798 306.7440 0011919 110.5907 249.6551 14.24990725725657
SPOT 6                  
1 38755U 12047A   26189.19011397  .00000165  00000+0  45393-4 0  9998
2 38755  98.2106 256.2526 0001132  81.3285 278.8042 14.58536455736113
PLEIADES 1B             
1 39019U 12068A   26189.00287822  .00000090  00000+0  29157-4 0  9990
2 39019  98.1936 263.7678 0001631  82.5293 277.6091 14.58573574723888
GOKTURK 2               
1 39030U 12073A   26189.17049726  .00000247  00000+0  43099-4 0  9991
2 39030  97.6817  25.5492 0000914  74.4259 285.7052 14.75563577727608
LANDSAT 8               
1 39084U 13008A   26189.17509558  .00000241  00000+0  63651-4 0  9993
2 39084  98.2292 259.0602 0001346  94.5142 265.6210 14.57108674700957
SARAL                   
1 39086U 13009A   26189.19944250  .00000060  00000+0  37915-4 0  9993
2 39086  98.5554  15.5009 0001282 186.2334 173.8835 14.32894517698613
GAOFEN-1                
1 39150U 13018A   26189.20649253 -.00000113  00000+0 -88637-5 0  9991
2 39150  97.9082 260.8469 0016468 193.9271 166.1487 14.76512445711345
VNREDSAT 1              
1 39160U 13021B   26189.19574696  .00000393  00000+0  82015-4 0  9993
2 39160  97.9066 241.8051 0001650  81.9630 278.1760 14.64879813703369
ARIRANG-5 (KOMPSAT-5)   
1 39227U 13042A   26189.18266922  .00001008  00000+0  76309-4 0  9992
2 39227  97.6221  15.5875 0005390  74.5269 285.6552 15.04515761707016
SKYSAT-A                
1 39418U 13066C   26189.08971413  .00002049  00000+0  11888-3 0  9993
2 39418  97.3803 237.8207 0019952 239.3754 120.5510 15.13089275691646
DUBAISAT-2              
1 39419U 13066D   26189.14009616  .00001936  00000+0  12179-3 0  9996
2 39419  97.4575 178.7381 0009941 330.5931  29.4739 15.10340468689556
GPM-CORE                
1 39574U 14009C   26189.12007345  .00003700  00000+0  83418-4 0  9997
2 39574  64.9704 237.9982 0011098 259.7478 100.2411 15.44987552701042
SENTINEL-1A             
1 39634U 14016A   26189.14462062  .00000135  00000+0  38394-4 0  9997
2 39634  98.1785 196.3716 0001418  87.3430 272.7932 14.59200864653079
KAZEOSAT 1              
1 39731U 14024A   26189.18410003 -.00000054  00000+0 -35267-5 0  9995
2 39731  98.3194 261.1087 0001266  83.4068 276.7266 14.42035313641584
ALOS-2                  
1 39766U 14029A   26189.24062329  .00001303  00000+0  18131-3 0  9994
2 39766  97.9222 286.1036 0001609  92.8546 267.2850 14.79473219654697
KAZEOSAT 2              
1 40010U 14033A   26189.17893556  .00000836  00000+0  10269-3 0  9993
2 40010  97.5401  27.6807 0007017 247.3705 112.6769 14.85496105652071
